TIANQI-15               
1 49027U 21065B   26068.81163741  .00006722  00000+0  41179-3 0  9990
2 49027  34.9979 108.2420 0007067 250.7766 109.2180 15.09508085254244
STARLINK-3967           
1 52636U 22052AQ  26068.83704963 -.00000328  00000+0 -25347-5 0  9995
2 52636  53.2163 268.4577 0001080 130.5297 229.5790 15.08845199211018
