[{"OBJECT_NAME":"TIANQI-15","OBJECT_ID":"2021-065B","EPOCH":"2026-03-09T19:28:45.472224","MEAN_MOTION":15.09508085,"ECCENTRICITY":0.00070671,"INCLINATION":34.9979,"RA_OF_ASC_NODE":108.242,"ARG_OF_PERICENTER":250.7766,"MEAN_ANOMALY":109.218,"EPHEMERIS_TYPE":0,"CLASSIFICATION_TYPE":"U","NORAD_CAT_ID":49027,"ELEMENT_SET_NO":999,"REV_AT_EPOCH":25424,"BSTAR":0.00041179088,"MEAN_MOTION_DOT":6.722e-5,"MEAN_MOTION_DDOT":0},{"OBJECT_NAME":"STARLINK-3967","OBJECT_ID":"2022-052AQ","EPOCH":"2026-03-09T20:05:21.088896","MEAN_MOTION":15.08845199,"ECCENTRICITY":0.00010801,"INCLINATION":53.2163,"RA_OF_ASC_NODE":268.4577,"ARG_OF_PERICENTER":130.5297,"MEAN_ANOMALY":229.579,"EPHEMERIS_TYPE":0,"CLASSIFICATION_TYPE":"U","NORAD_CAT_ID":52636,"ELEMENT_SET_NO":999,"REV_AT_EPOCH":21101,"BSTAR":-2.534744e-6,"MEAN_MOTION_DOT":-3.28e-6,"MEAN_MOTION_DDOT":0}]
